     2              NAVIGATION DATA                         RINEX VERSION / TYPE
CCRINEXN V1.6.0 UX  CDDIS               12-DEC-04 02:39     PGM / RUN BY / DATE 
IGS BROADCAST EPHEMERIS FILE                                COMMENT             
    0.9313D-08 -0.1490D-07 -0.5960D-07  0.1192D-06          ION ALPHA           
    0.9626D+05 -0.1475D+06 -0.1311D+06  0.9175D+06          ION BETA            
    0.000000000000D+00 0.621724893790D-14   147456     1301 DELTA-UTC: A0,A1,T,W
    13                                                      LEAP SECONDS        
                                                            END OF HEADER       
 1 04 12 11 22  0  0.0 0.377683434635D-03 0.170530256582D-11 0.000000000000D+00
    0.212000000000D+03-0.174437500000D+03 0.366693845699D-08 0.306881177109D+01
   -0.898353755474D-05 0.594299123623D-02 0.691413879395D-05 0.515363038063D+04
    0.597600000000D+06 0.745058059692D-08-0.489903859902D+00-0.279396772385D-07
    0.982136388414D+00 0.258281250000D+03-0.167027565442D+01-0.755924344426D-08
   -0.199651173416D-09 0.000000000000D+00 0.130000000000D+04 0.000000000000D+00
    0.200000000000D+01 0.000000000000D+00-0.372529029846D-08 0.468000000000D+03
    0.590670000000D+06 0.400000000000D+01 0.000000000000D+00 0.000000000000D+00
 2 04 12 11 22  0  0.0-0.676657073200D-04 0.102318153950D-10 0.000000000000D+00
    0.202000000000D+03 0.191687500000D+03 0.428303554848D-08-0.154784388383D+01
    0.100675970316D-04 0.943932519294D-02 0.744313001633D-05 0.515365772820D+04
    0.597600000000D+06-0.838190317154D-07-0.261200702668D+01 0.201165676117D-06
    0.957545038326D+00 0.238031250000D+03 0.173297658516D+01-0.800319050787D-08
    0.939324840936D-10 0.100000000000D+01 0.130000000000D+04 0.000000000000D+00
    0.280000000000D+01 0.000000000000D+00-0.172294676304D-07 0.458000000000D+03
    0.593808000000D+06 0.400000000000D+01 0.000000000000D+00 0.000000000000D+00
 3 04 12 11 22  0  0.0 0.680619850755D-04 0.306954461848D-11 0.000000000000D+00
    0.151000000000D+03-0.634375000000D+01 0.532093592405D-08-0.250355669772D+01
   -0.515952706337D-06 0.648368778639D-02 0.101570039988D-04 0.515370737076D+04
    0.597600000000D+06-0.372529029846D-08 0.254298709298D+01-0.108033418655D-06
    0.927500043745D+00 0.166656250000D+03 0.583250965555D+00-0.813926760460D-08
   -0.624311719375D-09 0.100000000000D+01 0.130000000000D+04 0.000000000000D+00
    0.100000000000D+01 0.000000000000D+00-0.419095158577D-08 0.919000000000D+03
    0.590400000000D+06 0.000000000000D+00 0.000000000000D+00 0.000000000000D+00
 4 04 12 11 22  0  0.0 0.509169418365D-03-0.193267624127D-10 0.000000000000D+00
    0.183000000000D+03 0.172718750000D+03 0.442339853802D-08 0.810419977131D+00
    0.909157097340D-05 0.699624069966D-02 0.706128776074D-05 0.515378515816D+04
    0.597600000000D+06 0.122934579849D-06-0.259192050606D+01 0.912696123123D-07
    0.957225978819D+00 0.237843750000D+03-0.187506350278D-01-0.804176354316D-08
    0.360729311538D-10 0.100000000000D+01 0.130000000000D+04 0.000000000000D+00
    0.200000000000D+01 0.000000000000D+00-0.605359673500D-08 0.439000000000D+03
    0.590418000000D+06 0.400000000000D+01 0.000000000000D+00 0.000000000000D+00
 5 04 12 11 22  0  0.0 0.650472939014D-04 0.227373675443D-11 0.000000000000D+00
    0.760000000000D+02 0.778125000000D+01 0.561201947742D-08 0.484439433704D+00
    0.217929482460D-06 0.590740924235D-02 0.506825745106D-05 0.515363094902D+04
    0.597600000000D+06-0.726431608200D-07 0.149959703283D+01 0.800937414169D-07
    0.935782963025D+00 0.270687500000D+03 0.933248068317D+00-0.845106630655D-08
    0.202508435289D-09 0.100000000000D+01 0.130000000000D+04 0.000000000000D+00
    0.200000000000D+01 0.000000000000D+00-0.419095158577D-08 0.760000000000D+02
    0.592278000000D+06 0.400000000000D+01 0.000000000000D+00 0.000000000000D+00
 6 04 12 11 22  0  0.0 0.451152678579D-03-0.158024704433D-10 0.000000000000D+00
    0.160000000000D+02 0.113437500000D+02 0.520735976458D-08 0.170967108447D+01
    0.551342964172D-06 0.629603094421D-02 0.105444341898D-04 0.515365403748D+04
    0.597600000000D+06-0.130385160446D-06 0.259750835866D+01-0.201165676117D-06
    0.935051141182D+00 0.165281250000D+03-0.194963481999D+01-0.810426614664D-08
   -0.690028742467D-09 0.000000000000D+00 0.130000000000D+04 0.000000000000D+00
    0.200000000000D+01 0.000000000000D+00-0.465661287308D-08 0.272000000000D+03
    0.596970000000D+06 0.000000000000D+00 0.000000000000D+00 0.000000000000D+00
 7 04 12 11 22  0  0.0 0.161286443472D-03-0.278532752418D-10 0.000000000000D+00
    0.650000000000D+02 0.206250000000D+02 0.501985195413D-08-0.236089625623D+01
    0.105611979961D-05 0.129382240120D-01 0.982172787190D-05 0.515363304520D+04
    0.597600000000D+06 0.214204192162D-06 0.257002509895D+01 0.689178705216D-07
    0.936646551363D+00 0.173906250000D+03-0.181396954366D+01-0.779818196844D-08
   -0.576095425258D-09 0.100000000000D+01 0.130000000000D+04 0.000000000000D+00
    0.200000000000D+01 0.000000000000D+00-0.186264514923D-08 0.321000000000D+03
    0.590418000000D+06 0.400000000000D+01 0.000000000000D+00 0.000000000000D+00
 8 04 12 11 22  0  0.0-0.155824236572D-04-0.795807864051D-12 0.000000000000D+00
    0.134000000000D+03-0.220312500000D+02 0.412017162169D-08 0.194138218750D+01
   -0.994652509689D-06 0.937292049639D-02 0.109933316708D-04 0.515359341812D+04
    0.597600000000D+06-0.745058059692D-08 0.563952119532D+00 0.141561031342D-06
    0.966985375965D+00 0.168843750000D+03 0.248557370116D+01-0.750674125733D-08
    0.664313385605D-09 0.100000000000D+01 0.130000000000D+04 0.000000000000D+00
    0.400000000000D+01 0.000000000000D+00-0.372529029846D-08 0.390000000000D+03
    0.590418000000D+06 0.400000000000D+01 0.000000000000D+00 0.000000000000D+00
 9 04 12 11 22  0  0.0-0.190096907318D-04-0.181898940355D-11 0.000000000000D+00
    0.112000000000D+03-0.564062500000D+02 0.436589614281D-08 0.143465726104D+01
   -0.295229256153D-05 0.162690135185D-01 0.114496797323D-04 0.515369574928D+04
    0.597600000000D+06-0.355765223503D-06 0.492267789226D+00-0.521540641785D-07
    0.954126210478D+00 0.158968750000D+03 0.111365485375D+01-0.790461497323D-08
    0.707172313708D-09 0.100000000000D+01 0.130000000000D+04 0.000000000000D+00
    0.280000000000D+01 0.000000000000D+00-0.558793544769D-08 0.880000000000D+03
    0.590418000000D+06 0.400000000000D+01 0.000000000000D+00 0.000000000000D+00
13 04 12 11 22  0  0.0-0.167675316334D-04 0.795807864051D-12 0.000000000000D+00
    0.201000000000D+03-0.163375000000D+03 0.373872716157D-08-0.120409156581D+01
   -0.860914587975D-05 0.220873206854D-02 0.785849988461D-05 0.515355817795D+04
    0.597600000000D+06 0.596046447754D-07-0.506299057845D+00 0.502914190292D-07
    0.986319800156D+00 0.241531250000D+03 0.940438824160D+00-0.771389274317D-08
   -0.271082720255D-09 0.100000000000D+01 0.130000000000D+04 0.000000000000D+00
    0.000000000000D+00 0.000000000000D+00-0.116415321827D-07 0.201000000000D+03
    0.590400000000D+06 0.000000000000D+00 0.000000000000D+00 0.000000000000D+00
14 04 12 11 22  0  0.0-0.312440097332D-04-0.113686837722D-12 0.000000000000D+00
    0.240000000000D+02-0.171937500000D+03 0.377837167006D-08-0.236539992122D+01
   -0.886619091034D-05 0.173827540129D-02 0.653974711895D-05 0.515367257881D+04
    0.597600000000D+06 0.316649675369D-07-0.516597413030D+00-0.121071934700D-06
    0.980688136089D+00 0.268093750000D+03-0.182216458838D+01-0.768853454404D-08
   -0.257867884090D-09 0.100000000000D+01 0.130000000000D+04 0.000000000000D+00
    0.200000000000D+01 0.000000000000D+00-0.107102096081D-07 0.280000000000D+03
    0.595698000000D+06 0.400000000000D+01 0.000000000000D+00 0.000000000000D+00
15 04 12 11 22  0  0.0 0.360167585313D-03 0.522959453519D-11 0.000000000000D+00
    0.690000000000D+02 0.173468750000D+03 0.423124767702D-08 0.168688622316D+01
    0.898540019989D-05 0.872522476129D-02 0.731274485588D-05 0.515360782623D+04
    0.597600000000D+06 0.100582838059D-06-0.253815595963D+01-0.372529029846D-08
    0.964254587748D+00 0.233156250000D+03 0.233386387958D+01-0.788925719066D-08
    0.325013538118D-10 0.100000000000D+01 0.130000000000D+04 0.000000000000D+00
    0.100000000000D+01 0.000000000000D+00-0.279396772385D-08 0.325000000000D+03
    0.590400000000D+06 0.000000000000D+00 0.000000000000D+00 0.000000000000D+00
16 04 12 11 22  0  0.0 0.281212851405D-05-0.341060513165D-12 0.000000000000D+00
    0.700000000000D+02 0.228125000000D+01 0.502056626959D-08 0.573090910257D+00
    0.782310962677D-07 0.234747154173D-02 0.493228435516D-05 0.515364773560D+04
    0.597600000000D+06-0.707805156708D-07 0.157685997594D+01-0.931322574615D-08
    0.960735133080D+00 0.281562500000D+03-0.123241508324D+01-0.819391273793D-08
    0.177150236161D-09 0.100000000000D+01 0.130000000000D+04 0.000000000000D+00
    0.340000000000D+01 0.000000000000D+00-0.977888703346D-08 0.326000000000D+03
    0.596106000000D+06 0.400000000000D+01 0.000000000000D+00 0.000000000000D+00
17 04 12 11 22  0  0.0-0.141179654747D-03 0.966338120634D-11 0.000000000000D+00
    0.192000000000D+03 0.198906250000D+03 0.418267422517D-08 0.244217543759D+01
    0.100154429674D-04 0.174135856796D-01 0.715442001820D-05 0.515370904159D+04
    0.597600000000D+06-0.340864062309D-06-0.249615543675D+01-0.178813934326D-06
    0.966143988872D+00 0.244093750000D+03-0.270489691777D+01-0.782175437889D-08
    0.193936649669D-09 0.100000000000D+01 0.130000000000D+04 0.000000000000D+00
    0.200000000000D+01 0.000000000000D+00-0.139698386192D-08 0.448000000000D+03
    0.596628000000D+06 0.400000000000D+01 0.000000000000D+00 0.000000000000D+00
